     2.10           N: GPS NAV DATA                         RINEX VERSION / TYPE
teqc  2014Jan16     CORS User           20140307 23:45:09UTCPGM / RUN BY / DATE
Solaris x86 5.10|AMD64|cc SC5.8 -xarch=amd64|=+|=+          COMMENT
     2              NAVIGATION DATA                         COMMENT
RINGO/GLOBAL        NATIONAL GEODETIC SURVEY                COMMENT
    2.7940D-08  0.0000D+00 -1.1921D-07  5.9605D-08          ION ALPHA
    1.3312D+05 -1.6384D+04 -1.9661D+05 -6.5536D+04          ION BETA
    9.313225746155D-10 2.664535259100D-15   319488     1782 DELTA-UTC: A0,A1,T,W
                                                            END OF HEADER
13 14  3  3  3 59 44.0 2.413941547270D-05-3.865352482530D-12 0.000000000000D+00
    1.000000000000D+00-1.312500000000D+01 4.501258924070D-09 1.842436975660D+00
   -6.649643182760D-07 5.278641474430D-03 2.549961209300D-06 5.153620687490D+03
    1.007840000000D+05 8.940696716310D-08 2.004799275160D+00 3.725290298460D-08
    9.780758164410D-01 3.382187500000D+02 2.197065660970D+00-8.276416174530D-09
   -8.714648714380D-11 1.000000000000D+00 1.782000000000D+03 0.000000000000D+00
    2.000000000000D+00 0.000000000000D+00-1.117587089540D-08 1.000000000000D+00
    9.999600000000D+04
13 14  3  3  4  0  0.0 2.413988113400D-05-3.865352482530D-12 0.000000000000D+00
    1.090000000000D+02-1.312500000000D+01 4.501258921150D-09 1.844770923940D+00
   -6.649643182760D-07 5.278637749140D-03 2.549961209300D-06 5.153620685580D+03
    1.008000000000D+05 8.940696716310D-08 2.004799123020D+00 3.725290298460D-08
    9.780758222930D-01 3.382187500000D+02 2.197065497120D+00-8.276415996990D-09
   -8.714648447320D-11 1.000000000000D+00 1.782000000000D+03 0.000000000000D+00
    2.800000000000D+00 0.000000000000D+00-1.117587089540D-08 1.090000000000D+02
    9.363000000000D+04
13 14  3  3  5 59 44.0 2.411147579550D-05-3.865352482530D-12 0.000000000000D+00
    8.000000000000D+00-8.531250000000D+00 4.496615873530D-09 2.892555581220D+00
   -3.986060619350D-07 5.278496071700D-03 2.706423401830D-06 5.153621532440D+03
    1.079840000000D+05 5.029141902920D-08 2.004739651010D+00 8.009374141690D-08
    9.780752020150D-01 3.361875000000D+02 2.197159694420D+00-8.264629969300D-09
   -6.750281176310D-11 1.000000000000D+00 1.782000000000D+03 0.000000000000D+00
    2.000000000000D+00 0.000000000000D+00-1.117587089540D-08 8.000000000000D+00
    1.008180000000D+05
13 14  3  3  8  0  0.0 2.408353611830D-05-3.865352482530D-12 0.000000000000D+00
    2.400000000000D+01 3.937500000000D+00 4.563047212090D-09-2.338167614870D+00
    2.514570951460D-07 5.280212382790D-03 2.842396497730D-06 5.153618204120D+03
    1.152000000000D+05-1.862645149230D-09 2.004680040020D+00 1.303851604460D-07
    9.780746256250D-01 3.337500000000D+02 2.197245251720D+00-8.296059849910D-09
   -6.785996949730D-11 1.000000000000D+00 1.782000000000D+03 0.000000000000D+00
    2.000000000000D+00 0.000000000000D+00-1.117587089540D-08 2.400000000000D+01
    1.140180000000D+05
13 14  3  3 10  0  0.0 2.405559644100D-05-3.865352482530D-12 0.000000000000D+00
    2.500000000000D+01 3.125000000000D+00 4.617335187690D-09-1.288005200760D+00
    1.210719347000D-07 5.280338227750D-03 3.023073077200D-06 5.153617624280D+03
    1.224000000000D+05-1.005828380590D-07 2.004619498620D+00 2.235174179080D-08
    9.780736849690D-01 3.316562500000D+02 2.197298624820D+00-8.427136738360D-09
   -3.535861568540D-11 1.000000000000D+00 1.782000000000D+03 0.000000000000D+00
    2.000000000000D+00 0.000000000000D+00-1.117587089540D-08 2.500000000000D+01
    1.152180000000D+05
13 14  3  3 12  0  0.0 2.402765676380D-05-3.865352482530D-12 0.000000000000D+00
    4.800000000000D+01 1.718750000000D+00 4.604834666990D-09-2.378143358190D-01
    3.725290298460D-09 5.280319484880D-03 2.950429916380D-06 5.153617427830D+03
    1.296000000000D+05-9.685754776000D-08 2.004559356600D+00-1.229345798490D-07
    9.780731510040D-01 3.320625000000D+02 2.197323452000D+00-8.427136738360D-09
   -1.425059359440D-10 1.000000000000D+00 1.782000000000D+03 0.000000000000D+00
    2.000000000000D+00 0.000000000000D+00-1.117587089540D-08 4.800000000000D+01
    1.224180000000D+05
13 14  3  3 14  0  0.0 2.399971708650D-05-3.865352482530D-12 0.000000000000D+00
    4.900000000000D+01-3.906250000000D+00 4.633407285730D-09 8.123582455700D-01
   -4.693865776060D-07 5.281109828500D-03 2.788379788400D-06 5.153618995670D+03
    1.368000000000D+05 3.725290298460D-09 2.004498693770D+00-1.322478055950D-07
    9.780719367820D-01 3.334375000000D+02 2.197366355000D+00-8.433208419840D-09
   -1.750072897560D-10 1.000000000000D+00 1.782000000000D+03 0.000000000000D+00
    2.000000000000D+00 0.000000000000D+00-1.117587089540D-08 4.900000000000D+01
    1.296180000000D+05
13 14  3  3 16  0  0.0 2.397177740930D-05-3.865352482530D-12 0.000000000000D+00
    5.000000000000D+01 4.500000000000D+00 4.634478758930D-09 1.862304204860D+00
    2.328306436540D-07 5.281321704390D-03 2.251937985420D-06 5.153621709820D+03
    1.440000000000D+05 7.823109626770D-08 2.004438503470D+00-6.519258022310D-08
    9.780709624790D-01 3.392187500000D+02 2.197634746340D+00-8.349990667770D-09
   -1.925080187320D-10 1.000000000000D+00 1.782000000000D+03 0.000000000000D+00
    2.000000000000D+00 0.000000000000D+00-1.117587089540D-08 5.000000000000D+01
    1.370580000000D+05
13 14  3  3 18  0  0.0 2.394383773210D-05-3.865352482530D-12 0.000000000000D+00
    5.100000000000D+01 9.125000000000D+00 4.726625454350D-09 2.912421938520D+00
    6.016343832020D-07 5.281162681060D-03 2.741813659670D-06 5.153622581480D+03
    1.512000000000D+05 1.061707735060D-07 2.004377308140D+00 1.769512891770D-07
    9.780701447070D-01 3.370312500000D+02 2.197730868840D+00-8.362134030730D-09
    2.500104139370D-12 1.000000000000D+00 1.782000000000D+03 0.000000000000D+00
    2.000000000000D+00 0.000000000000D+00-1.117587089540D-08 5.100000000000D+01
    1.440180000000D+05
13 14  3  3 20  0  0.0 2.391589805480D-05-3.865352482530D-12 0.000000000000D+00
    5.200000000000D+01 2.168750000000D+01 4.725196823410D-09-2.320649889160D+00
    1.290813088420D-06 5.282917176370D-03 2.996996045110D-06 5.153619136810D+03
    1.584000000000D+05-4.097819328310D-08 2.004317021290D+00 1.154839992520D-07
    9.780707840030D-01 3.335000000000D+02 2.197832317820D+00-8.291416799360D-09
    8.036049019410D-11 1.000000000000D+00 1.782000000000D+03 0.000000000000D+00
    2.000000000000D+00 0.000000000000D+00-1.117587089540D-08 5.200000000000D+01
    1.512180000000D+05
13 14  3  3 22  0  0.0 2.388795837760D-05-3.865352482530D-12 0.000000000000D+00
    8.000000000000D+01 2.059375000000D+01 4.757341019490D-09-1.270513374550D+00
    9.946525096890D-07 5.283125559800D-03 3.350898623470D-06 5.153618265150D+03
    1.656000000000D+05-1.080334186550D-07 2.004256291170D+00-5.401670932770D-08
    9.780708498340D-01 3.301250000000D+02 2.197912345290D+00-8.455352199360D-09
    1.382200431340D-10 1.000000000000D+00 1.782000000000D+03 0.000000000000D+00
    2.000000000000D+00 0.000000000000D+00-1.117587089540D-08 8.000000000000D+01
    1.584180000000D+05
14 14  3  2 22  0  0.0 1.938445493580D-04-3.183231456210D-12 0.000000000000D+00
    7.300000000000D+01-2.315625000000D+01 4.991993650860D-09-9.961057712090D-01
   -9.853392839430D-07 7.267646142280D-03 2.941116690640D-06 5.153619180680D+03
    7.920000000000D+04-2.793967723850D-08 1.973719738560D+00 1.322478055950D-07
    9.706485257610D-01 3.288750000000D+02-1.993347665080D+00-8.546070263840D-09
   -1.003613233090D-10 1.000000000000D+00 1.782000000000D+03 0.000000000000D+00
    2.000000000000D+00 0.000000000000D+00-8.847564458850D-09 7.300000000000D+01
    7.200000000000D+04
14 14  3  3  0  0  0.0 1.938212662940D-04-3.183231456210D-12 0.000000000000D+00
    7.400000000000D+01-1.081250000000D+01 4.899132639970D-09 5.421213207290D-02
   -6.947666406630D-07 7.269251393150D-03 2.920627593990D-06 5.153622552870D+03
    8.640000000000D+04-3.911554813380D-08 1.973657532360D+00 2.980232238770D-08
    9.706476480110D-01 3.305625000000D+02-1.993448970690D+00-8.628573700440D-09
   -6.250260348430D-11 1.000000000000D+00 1.782000000000D+03 0.000000000000D+00
    2.000000000000D+00 0.000000000000D+00-8.847564458850D-09 7.400000000000D+01
    8.314800000000D+04
14 14  3  3  2  0  0.0 1.937979832290D-04-3.183231456210D-12 0.000000000000D+00
    8.800000000000D+01-5.250000000000D+00 4.825915304460D-09 1.104503616520D+00
   -3.427267074590D-07 7.268962915990D-03 2.512708306310D-06 5.153621511460D+03
    9.360000000000D+04-1.247972249990D-07 1.973595116960D+00 7.636845111850D-08
    9.706474241840D-01 3.327812500000D+02-1.993525694900D+00-8.600358239440D-09
    3.928735076160D-12 1.000000000000D+00 1.782000000000D+03 0.000000000000D+00
    2.000000000000D+00 0.000000000000D+00-8.847564458850D-09 8.800000000000D+01
    8.641800000000D+04
14 14  3  3  3 59 44.0 1.937765628100D-04-3.183231456210D-12 0.000000000000D+00
    0.000000000000D+00 1.500000000000D+00 4.684837999450D-09 2.152507203880D+00
    1.005828380590D-07 7.268785382620D-03 2.732500433920D-06 5.153619857790D+03
    1.007840000000D+05-9.313225746160D-09 1.973533643680D+00-1.434236764910D-07
    9.706487715320D-01 3.304375000000D+02-1.993647577920D+00-8.365705608080D-09
    7.821754378890D-11 1.000000000000D+00 1.782000000000D+03 0.000000000000D+00
    2.000000000000D+00 0.000000000000D+00-8.847564458850D-09 0.000000000000D+00
    9.912600000000D+04
14 14  3  3  4  0  0.0 1.937747001650D-04-3.183231456210D-12 0.000000000000D+00
    9.000000000000D+01 1.500000000000D+00 4.684837999450D-09 2.154840985390D+00
    1.005828380590D-07 7.268787827340D-03 2.732500433920D-06 5.153619855880D+03
    1.008000000000D+05-9.313225746160D-09 1.973533478370D+00-1.434236764910D-07
    9.706487642170D-01 3.304375000000D+02-1.993647446250D+00-8.365705608080D-09
    7.821754378890D-11 1.000000000000D+00 1.782000000000D+03 0.000000000000D+00
    2.800000000000D+00 0.000000000000D+00-8.847564458850D-09 9.000000000000D+01
    9.832200000000D+04
